{
    "links": {
        "self": "http://www.neowsapp.com/rest/v1/neo/3721158?api_key=iIulBulltgU6a56xZRHN4H3l9WmuAYTsLGpBGhQ2"
    },
    "id": "3721158",
    "neo_reference_id": "3721158",
    "name": "(2015 LL21)",
    "designation": "2015 LL21",
    "nasa_jpl_url": "http://ssd.jpl.nasa.gov/sbdb.cgi?sstr=3721158",
    "absolute_magnitude_h": 19.9,
    "estimated_diameter": {
        "kilometers": {
            "estimated_diameter_min": 0.2783267681,
            "estimated_diameter_max": 0.6223575734
        },
        "meters": {
            "estimated_diameter_min": 278.3267680719,
            "estimated_diameter_max": 622.3575733667
        },
        "miles": {
            "estimated_diameter_min": 0.1729441822,
            "estimated_diameter_max": 0.3867149477
        },
        "feet": {
            "estimated_diameter_min": 913.1455937611,
            "estimated_diameter_max": 2041.8556210042
        }
    },
    "is_potentially_hazardous_asteroid": false,
    "close_approach_data": [
        {
            "close_approach_date": "2015-05-20",
            "close_approach_date_full": "2015-May-20 09:30",
            "epoch_date_close_approach": 1432114200000,
            "relative_velocity": {
                "kilometers_per_second": "14.9992693944",
                "kilometers_per_hour": "53997.369819845",
                "miles_per_hour": "33551.8657083365"
            },
            "miss_distance": {
                "astronomical": "0.2145767889",
                "lunar": "83.4703708821",
                "kilometers": "32100230.570879643",
                "miles": "19946158.3610913534"
            },
            "orbiting_body": "Earth"
        }
    ],
    "orbital_data": {
        "orbit_id": "9",
        "orbit_determination_date": "2017-08-10 06:19:11",
        "first_observation_date": "2015-05-26",
        "last_observation_date": "2015-06-26",
        "data_arc_in_days": 31,
        "observations_used": 63,
        "orbit_uncertainty": "8",
        "minimum_orbit_intersection": ".0547855",
        "jupiter_tisserand_invariant": "3.276",
        "epoch_osculation": "2457187.5",
        "eccentricity": ".7179922885054016",
        "semi_major_axis": "2.186068863607678",
        "inclination": "6.995518141676527",
        "ascending_node_longitude": "111.500457074892",
        "orbital_period": "1180.576637671872",
        "perihelion_distance": ".6164882773955985",
        "perihelion_argument": "56.32985748968148",
        "aphelion_distance": "3.755649449819757",
        "perihelion_time": "2457120.126894287461",
        "mean_anomaly": "20.544467239623",
        "mean_motion": ".3049357309915343",
        "equinox": "J2000",
        "orbit_class": {
            "orbit_class_type": "APO",
            "orbit_class_description": "Near-Earth asteroid orbits which cross the Earth’s orbit similar to that of 1862 Apollo",
            "orbit_class_range": "a (semi-major axis) > 1.0 AU; q (perihelion) < 1.017 AU"
        }
    },
    "is_sentry_object": false
}